{"type": "FeatureCollection", "features": [ {"type": "Feature", "properties": {"norad_id": 35773, "name": "COSMOS 2251 DEB", "group": "cosmos-2251-debris", "lat": 34.763923774585685, "lon": 130.65354938555058, "alt_km": 654.5399134470772, "timestamp": "2025-12-22T11:33:20.836666+00:00", "meta": {"OBJECT_NAME": "COSMOS 2251 DEB", "OBJECT_ID": "1993-036ART", "EPOCH": "2025-12-22T04:20:10.042656", "MEAN_MOTION": 14.62117693, "ECCENTRICITY": 0.0045219, "INCLINATION": 74.0084, "RA_OF_ASC_NODE": 322.7115, "ARG_OF_PERICENTER": 119.964, "MEAN_ANOMALY": 240.6027, "EPHEMERIS_TYPE": 0, "CLASSIFICATION_TYPE": "U", "NORAD_CAT_ID": 35773, "ELEMENT_SET_NO": 999, "REV_AT_EPOCH": 86977, "BSTAR": 0.00057329, "MEAN_MOTION_DOT": 2.894e-05, "MEAN_MOTION_DDOT": 0}, "tle": {"line1": "1 35773U 93036ART 25356.18067179  .00002894  00000+0  57329-3 0  9997", "line2": "2 35773  74.0084 322.7115 0045219 119.9640 240.6027 14.62117693869770"}}, "geometry": {"type": "Point", "coordinates": [130.65354938555058, 34.763923774585685]}}, {"type": "Feature", "properties": {"norad_id": 35777, "name": "COSMOS 2251 DEB", "group": "cosmos-2251-debris", "lat": 31.462537296259573, "lon": -42.55942017878542, "alt_km": 1431.6592978655663, "timestamp": "2025-12-22T11:33:20.836676+00:00", "meta": {"OBJECT_NAME": "COSMOS 2251 DEB", "OBJECT_ID": "1993-036ARX", "EPOCH": "2025-12-22T04:19:16.095360", "MEAN_MOTION": 13.41306748, "ECCENTRICITY": 0.0451839, "INCLINATION": 73.7706, "RA_OF_ASC_NODE": 307.6559, "ARG_OF_PERICENTER": 201.1078, "MEAN_ANOMALY": 178.0054, "EPHEMERIS_TYPE": 0, "CLASSIFICATION_TYPE": "U", "NORAD_CAT_ID": 35777, "ELEMENT_SET_NO": 999, "REV_AT_EPOCH": 79811, "BSTAR": 0.00017717, "MEAN_MOTION_DOT": 1.57e-06, "MEAN_MOTION_DDOT": 0}, "tle": {"line1": "1 35777U 93036ARX 25356.18004740  .00000157  00000+0  17717-3 0  9993", "line2": "2 35777  73.7706 307.6559 0451839 201.1078 178.0054 13.41306748798113"}}, "geometry": {"type": "Point", "coordinates": [-42.55942017878542, 31.462537296259573]}}, {"type": "Feature", "properties": {"norad_id": 35784, "name": "COSMOS 2251 DEB", "group": "cosmos-2251-debris", "lat": 72.71451047965206, "lon": -175.44879093437572, "alt_km": 724.9767289548381, "timestamp": "2025-12-22T11:33:20.836686+00:00", "meta": {"OBJECT_NAME": "COSMOS 2251 DEB", "OBJECT_ID": "1993-036ASE", "EPOCH": "2025-12-17T23:28:57.859680", "MEAN_MOTION": 14.50055355, "ECCENTRICITY": 0.00415956, "INCLINATION": 74.0403, "RA_OF_ASC_NODE": 79.8718, "ARG_OF_PERICENTER": 209.9484, "MEAN_ANOMALY": 149.9297, "EPHEMERIS_TYPE": 0, "CLASSIFICATION_TYPE": "U", "NORAD_CAT_ID": 35784, "ELEMENT_SET_NO": 999, "REV_AT_EPOCH": 65782, "BSTAR": 0.00024795111, "MEAN_MOTION_DOT": 9.44e-06, "MEAN_MOTION_DDOT": 0}, "tle": {"line1": "1 35784U 93036ASE 25351.97844745  .00000944  00000+0  24795-3 0  9998", "line2": "2 35784  74.0403  79.8718 0041595 209.9484 149.9297 14.50055355657829"}}, "geometry": {"type": "Point", "coordinates": [-175.44879093437572, 72.71451047965206]}}, {"type": "Feature", "properties": {"norad_id": 35786, "name": "COSMOS 2251 DEB", "group": "cosmos-2251-debris", "lat": -42.32792409421372, "lon": -139.8966364571428, "alt_km": 671.8083274647861, "timestamp": "2025-12-22T11:33:20.836696+00:00", "meta": {"OBJECT_NAME": "COSMOS 2251 DEB", "OBJECT_ID": "1993-036ASG", "EPOCH": "2025-12-21T19:48:04.442688", "MEAN_MOTION": 14.66307498, "ECCENTRICITY": 0.003332, "INCLINATION": 74.0136, "RA_OF_ASC_NODE": 26.2337, "ARG_OF_PERICENTER": 153.7976, "MEAN_ANOMALY": 206.4888, "EPHEMERIS_TYPE": 0, "CLASSIFICATION_TYPE": "U", "NORAD_CAT_ID": 35786, "ELEMENT_SET_NO": 999, "REV_AT_EPOCH": 73541, "BSTAR": 0.00067287, "MEAN_MOTION_DOT": 3.713e-05, "MEAN_MOTION_DDOT": 0}, "tle": {"line1": "1 35786U 93036ASG 25355.82505142  .00003713  00000+0  67287-3 0  9993", "line2": "2 35786  74.0136  26.2337 0033320 153.7976 206.4888 14.66307498735418"}}, "geometry": {"type": "Point", "coordinates": [-139.8966364571428, -42.32792409421372]}}, {"type": "Feature", "properties": {"norad_id": 35789, "name": "COSMOS 2251 DEB", "group": "cosmos-2251-debris", "lat": -60.41918605505693, "lon": -123.78811993579377, "alt_km": 765.7790972397597, "timestamp": "2025-12-22T11:33:20.836706+00:00", "meta": {"OBJECT_NAME": "COSMOS 2251 DEB", "OBJECT_ID": "1993-036ASK", "EPOCH": "2025-12-20T11:22:01.638048", "MEAN_MOTION": 14.35991601, "ECCENTRICITY": 0.00476765, "INCLINATION": 74.0388, "RA_OF_ASC_NODE": 270.1736, "ARG_OF_PERICENTER": 7.6909, "MEAN_ANOMALY": 352.4963, "EPHEMERIS_TYPE": 0, "CLASSIFICATION_TYPE": "U", "NORAD_CAT_ID": 35789, "ELEMENT_SET_NO": 999, "REV_AT_EPOCH": 61338, "BSTAR": 9.629757e-05, "MEAN_MOTION_DOT": 2.57e-06, "MEAN_MOTION_DDOT": 0}, "tle": {"line1": "1 35789U 93036ASK 25354.47363007  .00000257  00000+0  96298-4 0  9993", "line2": "2 35789  74.0388 270.1736 0047676   7.6909 352.4963 14.35991601613383"}}, "geometry": {"type": "Point", "coordinates": [-123.78811993579377, -60.41918605505693]}}, {"type": "Feature", "properties": {"norad_id": 35793, "name": "COSMOS 2251 DEB", "group": "cosmos-2251-debris", "lat": 45.6664745089455, "lon": 58.069245117022774, "alt_km": 627.2484989364257, "timestamp": "2025-12-22T11:33:20.836716+00:00", "meta": {"OBJECT_NAME": "COSMOS 2251 DEB", "OBJECT_ID": "1993-036ASP", "EPOCH": "2025-12-21T21:32:54.269376", "MEAN_MOTION": 14.78875941, "ECCENTRICITY": 0.0002168, "INCLINATION": 74.0406, "RA_OF_ASC_NODE": 42.1839, "ARG_OF_PERICENTER": 81.4639, "MEAN_ANOMALY": 100.704, "EPHEMERIS_TYPE": 0, "CLASSIFICATION_TYPE": "U", "NORAD_CAT_ID": 35793, "ELEMENT_SET_NO": 999, "REV_AT_EPOCH": 65932, "BSTAR": 0.0015946, "MEAN_MOTION_DOT": 0.00011735, "MEAN_MOTION_DDOT": 0}, "tle": {"line1": "1 35793U 93036ASP 25355.89785034  .00011735  00000+0  15946-2 0  9995", "line2": "2 35793  74.0406  42.1839 0002168  81.4639 100.7040 14.78875941659326"}}, "geometry": {"type": "Point", "coordinates": [58.069245117022774, 45.6664745089455]}}, {"type": "Feature", "properties": {"norad_id": 35824, "name": "COSMOS 2251 DEB", "group": "cosmos-2251-debris", "lat": 34.28098732978057, "lon": -159.34939186207, "alt_km": 770.0170566944489, "timestamp": "2025-12-22T11:33:20.836726+00:00", "meta": {"OBJECT_NAME": "COSMOS 2251 DEB", "OBJECT_ID": "1993-036ASW", "EPOCH": "2025-12-21T08:56:41.476128", "MEAN_MOTION": 13.88446909, "ECCENTRICITY": 0.02476754, "INCLINATION": 73.8455, "RA_OF_ASC_NODE": 33.9512, "ARG_OF_PERICENTER": 118.4856, "MEAN_ANOMALY": 244.1458, "EPHEMERIS_TYPE": 0, "CLASSIFICATION_TYPE": "U", "NORAD_CAT_ID": 35824, "ELEMENT_SET_NO": 999, "REV_AT_EPOCH": 84347, "BSTAR": 0.00083575798, "MEAN_MOTION_DOT": 1.258e-05, "MEAN_MOTION_DDOT": 0}, "tle": {"line1": "1 35824U 93036ASW 25355.37270227  .00001258  00000+0  83576-3 0  9990", "line2": "2 35824  73.8455  33.9512 0247675 118.4856 244.1458 13.88446909843479"}}, "geometry": {"type": "Point", "coordinates": [-159.34939186207, 34.28098732978057]}}, {"type": "Feature", "properties": {"norad_id": 35825, "name": "COSMOS 2251 DEB", "group": "cosmos-2251-debris", "lat": -74.03817778565873, "lon": 31.29518416544394, "alt_km": 825.1813472643071, "timestamp": "2025-12-22T11:33:20.836736+00:00", "meta": {"OBJECT_NAME": "COSMOS 2251 DEB", "OBJECT_ID": "1993-036ASX", "EPOCH": "2025-12-14T02:36:29.406816", "MEAN_MOTION": 13.70963524, "ECCENTRICITY": 0.03526119, "INCLINATION": 74.113, "RA_OF_ASC_NODE": 140.3902, "ARG_OF_PERICENTER": 235.9093, "MEAN_ANOMALY": 120.8102, "EPHEMERIS_TYPE": 0, "CLASSIFICATION_TYPE": "U", "NORAD_CAT_ID": 35825, "ELEMENT_SET_NO": 999, "REV_AT_EPOCH": 82527, "BSTAR": 0.0023333684, "MEAN_MOTION_DOT": 3.214e-05, "MEAN_MOTION_DDOT": 0}, "tle": {"line1": "1 35825U 93036ASX 25348.10867369  .00003214  00000+0  23334-2 0  9992", "line2": "2 35825  74.1130 140.3902 0352611 235.9093 120.8102 13.70963524825277"}}, "geometry": {"type": "Point", "coordinates": [31.29518416544394, -74.03817778565873]}}, {"type": "Feature", "properties": {"norad_id": 35829, "name": "COSMOS 2251 DEB", "group": "cosmos-2251-debris", "lat": -59.151166436480864, "lon": -71.62070205023942, "alt_km": 648.4046262048187, "timestamp": "2025-12-22T11:33:20.836745+00:00", "meta": {"OBJECT_NAME": "COSMOS 2251 DEB", "OBJECT_ID": "1993-036ATB", "EPOCH": "2025-12-17T00:21:46.598688", "MEAN_MOTION": 14.76400839, "ECCENTRICITY": 0.0005573, "INCLINATION": 74.0249, "RA_OF_ASC_NODE": 90.4281, "ARG_OF_PERICENTER": 146.0686, "MEAN_ANOMALY": 214.0846, "EPHEMERIS_TYPE": 0, "CLASSIFICATION_TYPE": "U", "NORAD_CAT_ID": 35829, "ELEMENT_SET_NO": 999, "REV_AT_EPOCH": 87838, "BSTAR": 0.001494418, "MEAN_MOTION_DOT": 0.00010373, "MEAN_MOTION_DDOT": 0}, "tle": {"line1": "1 35829U 93036ATB 25351.01512267  .00010373  00000+0  14944-2 0  9995", "line2": "2 35829  74.0249  90.4281 0005573 146.0686 214.0846 14.76400839878381"}}, "geometry": {"type": "Point", "coordinates": [-71.62070205023942, -59.151166436480864]}}, {"type": "Feature", "properties": {"norad_id": 35830, "name": "COSMOS 2251 DEB", "group": "cosmos-2251-debris", "lat": 29.614647284130044, "lon": 59.23624266470002, "alt_km": 773.5919218033569, "timestamp": "2025-12-22T11:33:20.836755+00:00", "meta": {"OBJECT_NAME": "COSMOS 2251 DEB", "OBJECT_ID": "1993-036ATC", "EPOCH": "2025-12-17T01:01:27.071616", "MEAN_MOTION": 14.24015017, "ECCENTRICITY": 0.01218819, "INCLINATION": 73.8614, "RA_OF_ASC_NODE": 258.6041, "ARG_OF_PERICENTER": 226.0627, "MEAN_ANOMALY": 133.0413, "EPHEMERIS_TYPE": 0, "CLASSIFICATION_TYPE": "U", "NORAD_CAT_ID": 35830, "ELEMENT_SET_NO": 999, "REV_AT_EPOCH": 61325, "BSTAR": 0.00082142349, "MEAN_MOTION_DOT": 2.01e-05, "MEAN_MOTION_DDOT": 0}, "tle": {"line1": "1 35830U 93036ATC 25351.04267444  .00002010  00000+0  82142-3 0  9999", "line2": "2 35830  73.8614 258.6041 0121881 226.0627 133.0413 14.24015017613259"}}, "geometry": {"type": "Point", "coordinates": [59.23624266470002, 29.614647284130044]}}]}